NORAD_CAT_ID,OBJECT_NAME,OBJECT_TYPE,EPOCH,MEAN_MOTION,ECCENTRICITY,INCLINATION,RA_OF_ASC_NODE,ARG_OF_PERICENTER,MEAN_ANOMALY,BSTAR,MEAN_MOTION_DOT,MEAN_MOTION_DDOT,TLE_LINE0,TLE_LINE1,TLE_LINE2,SEMIMAJOR_AXIS,PERIOD,APOGEE,PERIGEE,DECAYED
49746.0,STARLINK-3233,PAYLOAD,2023-12-23 17:01:16,15.08768428,0.0001483,53.2166,171.7934,63.7963,296.3181,-0.00067845,-0.00011048,0.0,0 STARLINK-3233,1 49746U 21115Y   23357.70921585 -.00011048  00000-0 -67845-3 0  9996,2 49746  53.2166 171.7934 0001483  63.7963 296.3181 15.08768428114811,6918.099,95.442,540.99,538.938,0.0
49746.0,STARLINK-3233,PAYLOAD,2023-12-24 12:05:49,15.08831517,0.0001655,53.2176,168.2309,97.9475,262.1705,0.00018179,2.606e-05,0.0,0 STARLINK-3233,1 49746U 21115Y   23358.50404317  .00002606  00000-0  18179-3 0  9998,2 49746  53.2176 168.2309 0001655  97.9475 262.1705 15.08831517114933,6917.906,95.438,540.916,538.626,0.0
49746.0,STARLINK-3233,PAYLOAD,2023-12-24 18:27:21,15.08842403,0.0001339,53.2169,167.0391,103.89,256.2241,0.00027232,4.049e-05,0.0,0 STARLINK-3233,1 49746U 21115Y   23358.76899628  .00004049  00000-0  27232-3 0  9992,2 49746  53.2169 167.0391 0001339 103.8900 256.2241 15.08842403114971,6917.873,95.437,540.664,538.812,0.0
49746.0,STARLINK-3233,PAYLOAD,2023-12-24 21:38:07,15.08845995,0.0001214,53.2163,166.4433,101.7956,258.3172,0.00029242,4.37e-05,0.0,0 STARLINK-3233,1 49746U 21115Y   23358.90147458  .00004370  00000-0  29242-3 0  9995,2 49746  53.2163 166.4433 0001214 101.7956 258.3172 15.08845995113889,6917.862,95.437,540.567,538.887,0.0
49746.0,STARLINK-3233,PAYLOAD,2023-12-25 13:31:59,15.08796689,0.0001523,53.2163,163.4699,105.7039,254.4122,0.001228,0.00019286,0.0,0 STARLINK-3233,1 49746U 21115Y   23359.56388850  .00019286  00000-0  12280-2 0  9996,2 49746  53.2163 163.4699 0001523 105.7039 254.4122 15.08796689113987,6918.013,95.44,540.931,538.824,0.0
49746.0,STARLINK-3233,PAYLOAD,2023-12-25 16:42:47,15.08835617,0.0001254,53.2153,162.8761,75.3185,284.7946,0.0014286,0.00022519,0.0,0 STARLINK-3233,1 49746U 21115Y   23359.69637822  .00022519  00000-0  14286-2 0  9997,2 49746  53.2153 162.8761 0001254  75.3185 284.7946 15.08835617115116,6917.894,95.438,540.626,538.891,0.0
49746.0,STARLINK-3233,PAYLOAD,2023-12-26 14:58:08,15.08869586,0.0001182,53.2154,158.7123,87.2555,272.8572,4.025e-05,3.53e-06,0.0,0 STARLINK-3233,1 49746U 21115Y   23360.62370377  .00000353  00000-0  40250-4 0  9995,2 49746  53.2154 158.7123 0001182  87.2555 272.8572 15.08869586114143,6917.79,95.436,540.473,538.837,0.0
49746.0,STARLINK-3233,PAYLOAD,2023-12-26 19:44:17,15.08868719,0.0001184,53.2155,157.8201,84.458,275.6547,1.3564e-05,-7.2e-07,0.0,0 STARLINK-3233,1 49746U 21115Y   23360.82242011 -.00000072  00000-0  13564-4 0  9997,2 49746  53.2155 157.8201 0001184  84.4580 275.6547 15.08868719115286,6917.793,95.436,540.477,538.839,0.0
49746.0,STARLINK-3233,PAYLOAD,2023-12-26 21:19:40,15.08867862,0.0001182,53.2155,157.5231,84.8752,275.2375,-2.2627e-06,-3.24e-06,0.0,0 STARLINK-3233,1 49746U 21115Y   23360.88865909 -.00000324  00000-0 -22627-5 0  9992,2 49746  53.2155 157.5231 0001182  84.8752 275.2375 15.08867862114180,6917.795,95.436,540.478,538.843,0.0
49746.0,STARLINK-3233,PAYLOAD,2023-12-27 14:48:54,15.08854223,0.0001362,53.2162,154.2503,82.1704,277.9443,-0.00026022,-4.429e-05,0.0,0 STARLINK-3233,1 49746U 21115Y   23361.61729760 -.00004429  00000-0 -26022-3 0  9999,2 49746  53.2162 154.2503 0001362  82.1704 277.9443 15.08854223114296,6917.837,95.437,540.644,538.76,0.0
49746.0,STARLINK-3233,PAYLOAD,2023-12-27 19:35:03,15.08862469,0.0001332,53.2174,153.3574,87.6957,272.4187,-7.6839e-05,-1.511e-05,0.0,0 STARLINK-3233,1 49746U 21115Y   23361.81601611 -.00001511  00000-0 -76839-4 0  9996,2 49746  53.2174 153.3574 0001332  87.6957 272.4187 15.08862469115437,6917.812,95.436,540.598,538.755,0.0
49746.0,STARLINK-3233,PAYLOAD,2023-12-28 14:39:41,15.08846122,0.0001423,53.2179,149.7877,76.5165,283.5986,-4.763e-05,-1.046e-05,0.0,0 STARLINK-3233,1 49746U 21115Y   23362.61090052 -.00001046  00000-0 -47630-4 0  9996,2 49746  53.2179 149.7877 0001423  76.5165 283.5986 15.08846122114444,6917.862,95.437,540.711,538.742,0.0
49746.0,STARLINK-3233,PAYLOAD,2023-12-28 16:15:04,15.0884708,0.0001421,53.2177,149.4919,78.0475,282.0677,-4.3164e-05,-9.75e-06,0.0,0 STARLINK-3233,1 49746U 21115Y   23362.67713951 -.00000975  00000-0 -43164-4 0  9990,2 49746  53.2177 149.4919 0001421  78.0475 282.0677 15.08847080115564,6917.859,95.437,540.707,538.741,0.0
49746.0,STARLINK-3233,PAYLOAD,2023-12-29 14:30:28,15.0884791,0.0001482,53.2174,145.3356,119.065,241.049,6.533e-06,-1.84e-06,0.0,0 STARLINK-3233,1 49746U 21115Y   23363.60449396 -.00000184  00000-0  65330-5 0  9994,2 49746  53.2174 145.3356 0001482 119.0650 241.0490 15.08847910114591,6917.856,95.437,540.746,538.696,0.0
49746.0,STARLINK-3233,PAYLOAD,2023-12-30 12:45:52,15.08841791,0.0001525,53.2179,141.1711,112.077,248.0384,-1.3926e-06,-3.1e-06,0.0,0 STARLINK-3233,1 49746U 21115Y   23364.53185716 -.00000310  00000-0 -13926-5 0  9996,2 49746  53.2179 141.1711 0001525 112.0770 248.0384 15.08841791115848,6917.875,95.437,540.795,538.685,0.0
49746.0,STARLINK-3233,PAYLOAD,2023-12-30 14:21:15,15.08841399,0.0001613,53.2184,140.8734,119.4536,240.6617,-7.244e-06,-4.03e-06,0.0,0 STARLINK-3233,1 49746U 21115Y   23364.59809696 -.00000403  00000-0 -72440-5 0  9991,2 49746  53.2184 140.8734 0001613 119.4536 240.6617 15.08841399114743,6917.876,95.437,540.857,538.625,0.0
49746.0,STARLINK-3233,PAYLOAD,2023-12-30 15:56:38,15.08839061,0.0001357,53.2178,140.5761,101.634,258.4805,5.0569e-05,5.17e-06,0.0,0 STARLINK-3233,1 49746U 21115Y   23364.66433719  .00000517  00000-0  50569-4 0  9999,2 49746  53.2178 140.5761 0001357 101.6340 258.4805 15.08839061114754,6917.883,95.438,540.687,538.81,0.0
49746.0,STARLINK-3233,PAYLOAD,2023-12-31 15:47:26,15.08839106,0.0001196,53.2177,136.1145,100.0074,260.1054,-5.1545e-05,-1.108e-05,0.0,0 STARLINK-3233,1 49746U 21115Y   23365.65794166 -.00001108  00000-0 -51545-4 0  9999,2 49746  53.2177 136.1145 0001196 100.0074 260.1054 15.08839106116015,6917.883,95.438,540.576,538.921,0.0
49746.0,STARLINK-3233,PAYLOAD,2024-01-01 14:02:49,15.0884031,0.0001208,53.2178,131.9518,100.6613,259.4515,7.0702e-05,8.38e-06,0.0,0 STARLINK-3233,1 49746U 21115Y   24001.58529849  .00000838  00000-0  70702-4 0  9996,2 49746  53.2178 131.9518 0001208 100.6613 259.4515 15.08840310115046,6917.879,95.438,540.58,538.909,0.0
49746.0,STARLINK-3233,PAYLOAD,2024-01-01 15:38:12,15.08841212,0.0001189,53.2178,131.6546,96.8363,263.2764,7.6479e-05,9.3e-06,0.0,0 STARLINK-3233,1 49746U 21115Y   24001.65153791  .00000930  00000-0  76479-4 0  9993,2 49746  53.2178 131.6546 0001189  96.8363 263.2764 15.08841212116165,6917.877,95.437,540.564,538.919,0.0
49746.0,STARLINK-3233,PAYLOAD,2024-01-02 12:18:14,15.0883482,0.0001204,53.2181,127.7891,88.6665,271.4465,5.9932e-05,6.66e-06,0.0,0 STARLINK-3233,1 49746U 21115Y   24002.51266496  .00000666  00000-0  59932-4 0  9997,2 49746  53.2181 127.7891 0001204  88.6665 271.4465 15.08834820116290,6917.896,95.438,540.594,538.928,0.0
49746.0,STARLINK-3233,PAYLOAD,2024-01-02 13:53:37,15.08836013,0.0001168,53.2178,127.4921,89.1407,270.9719,7.0493e-05,8.34e-06,0.0,0 STARLINK-3233,1 49746U 21115Y   24002.57890394  .00000834  00000-0  70493-4 0  9995,2 49746  53.2178 127.4921 0001168  89.1407 270.9719 15.08836013115196,6917.893,95.438,540.566,538.95,0.0
49746.0,STARLINK-3233,PAYLOAD,2024-01-02 15:29:00,15.0884022,0.0001348,53.218,127.1946,93.6328,266.4819,2.9116e-05,1.76e-06,0.0,0 STARLINK-3233,1 49746U 21115Y   24002.64514275  .00000176  00000-0  29116-4 0  9999,2 49746  53.2180 127.1946 0001348  93.6328 266.4819 15.08840220115203,6917.88,95.438,540.677,538.812,0.0
49746.0,STARLINK-3233,PAYLOAD,2024-01-03 13:44:24,15.08835429,0.0001231,53.2181,123.0306,95.3189,264.7944,-1.0381e-05,-4.53e-06,0.0,0 STARLINK-3233,1 49746U 21115Y   24003.57250999 -.00000453  00000-0 -10381-4 0  9996,2 49746  53.2181 123.0306 0001231  95.3189 264.7944 15.08835429115344,6917.894,95.438,540.611,538.908,0.0
49746.0,STARLINK-3233,PAYLOAD,2024-01-03 15:19:47,15.08838211,0.0001254,53.2177,122.733,94.12,265.9935,-7.1053e-06,-4.01e-06,0.0,0 STARLINK-3233,1 49746U 21115Y   24003.63874834 -.00000401  00000-0 -71053-5 0  9990,2 49746  53.2177 122.7330 0001254  94.1200 265.9935 15.08838211116467,6917.886,95.438,540.618,538.883,0.0
49746.0,STARLINK-3233,PAYLOAD,2024-01-04 11:59:47,15.08850961,0.0001321,53.2179,118.8694,93.8146,266.2997,0.00015027,2.105e-05,0.0,0 STARLINK-3233,1 49746U 21115Y   24004.49985325  .00002105  00000-0  15027-3 0  9991,2 49746  53.2179 118.8694 0001321  93.8146 266.2997 15.08850961116590,6917.847,95.437,540.626,538.798,0.0
49746.0,STARLINK-3233,PAYLOAD,2024-01-04 13:35:10,15.0885322,0.0001332,53.2177,118.5716,92.119,267.9955,0.00016848,2.395e-05,0.0,0 STARLINK-3233,1 49746U 21115Y   24004.56609101  .00002395  00000-0  16848-3 0  9997,2 49746  53.2177 118.5716 0001332  92.1190 267.9955 15.08853220115494,6917.84,95.437,540.626,538.784,0.0
49746.0,STARLINK-3233,PAYLOAD,2024-01-04 15:10:32,15.08859042,0.0001315,53.2181,118.2722,77.601,282.5129,0.000225,3.297e-05,0.0,0 STARLINK-3233,1 49746U 21115Y   24004.63232609  .00003297  00000-0  22500-3 0  9994,2 49746  53.2181 118.2722 0001315  77.6010 282.5129 15.08859042116612,6917.822,95.436,540.597,538.777,0.0
49746.0,STARLINK-3233,PAYLOAD,2024-01-05 13:25:59,15.08831679,0.0001465,53.2177,114.1108,71.4121,288.7031,-5.0361e-05,-1.089e-05,0.0,0 STARLINK-3233,1 49746U 21115Y   24005.55971509 -.00001089  00000-0 -50361-4 0  9991,2 49746  53.2177 114.1108 0001465  71.4121 288.7031 15.08831679116752,6917.906,95.438,540.784,538.757,0.0
49746.0,STARLINK-3233,PAYLOAD,2024-01-06 11:41:22,15.08847934,0.0001623,53.219,109.9489,71.7154,288.4015,-5.6151e-05,-1.182e-05,0.0,0 STARLINK-3233,1 49746U 21115Y   24006.48706668 -.00001182  00000-0 -56151-4 0  9993,2 49746  53.2190 109.9489 0001623  71.7154 288.4015 15.08847934116891,6917.856,95.437,540.844,538.598,0.0
